[{"OBJECT_NAME":"IRS-P6 (RESOURCESAT-1)","OBJECT_ID":"2003-046A","EPOCH":"2026-03-10T00:23:01.313952","MEAN_MOTION":14.36117534,"ECCENTRICITY":0.00629144,"INCLINATION":98.2042,"RA_OF_ASC_NODE":110.3286,"ARG_OF_PERICENTER":280.126,"MEAN_ANOMALY":140.7181,"EPHEMERIS_TYPE":0,"CLASSIFICATION_TYPE":"U","NORAD_CAT_ID":28051,"ELEMENT_SET_NO":999,"REV_AT_EPOCH":16629,"BSTAR":9.8466414e-5,"MEAN_MOTION_DOT":2.52e-6,"MEAN_MOTION_DDOT":0},{"OBJECT_NAME":"CZ-4C R\/B","OBJECT_ID":"2021-109B","EPOCH":"2026-03-09T22:38:24.916416","MEAN_MOTION":14.75647247,"ECCENTRICITY":0.01171981,"INCLINATION":98.2159,"RA_OF_ASC_NODE":140.2327,"ARG_OF_PERICENTER":108.8459,"MEAN_ANOMALY":252.5502,"EPHEMERIS_TYPE":0,"CLASSIFICATION_TYPE":"U","NORAD_CAT_ID":49496,"ELEMENT_SET_NO":999,"REV_AT_EPOCH":23090,"BSTAR":0.00015081956,"MEAN_MOTION_DOT":1.092e-5,"MEAN_MOTION_DDOT":0}]
